{
  "type": "FeatureCollection",
  "name": "aires_protegees_zone_pilote_cavally",
  "crs": { "type": "name", "properties": { "name": "urn:ogc:def:crs:OGC:1.3:CRS84" } },
  "features": [
    {
      "type": "Feature",
      "properties": {
        "id": "FC-CAVALLY",
        "name": "Forêt classée du Cavally",
        "category": "foret_classee",
        "authority": "SODEFOR",
        "status": "protégée"
      },
      "geometry": {
        "type": "Polygon",
        "coordinates": [[
          [-7.492, 6.514],
          [-7.450, 6.514],
          [-7.450, 6.545],
          [-7.492, 6.545],
          [-7.492, 6.514]
        ]]
      }
    },
    {
      "type": "Feature",
      "properties": {
        "id": "FC-GOIN-DEBE",
        "name": "Forêt classée du Goin-Débé",
        "category": "foret_classee",
        "authority": "SODEFOR",
        "status": "protégée"
      },
      "geometry": {
        "type": "Polygon",
        "coordinates": [[
          [-7.432, 6.584],
          [-7.395, 6.584],
          [-7.395, 6.618],
          [-7.432, 6.618],
          [-7.432, 6.584]
        ]]
      }
    },
    {
      "type": "Feature",
      "properties": {
        "id": "PN-TAI-TAMPON",
        "name": "Parc national de Taï — zone tampon",
        "category": "parc_national",
        "authority": "OIPR",
        "status": "protégée"
      },
      "geometry": {
        "type": "Polygon",
        "coordinates": [[
          [-7.600, 6.400],
          [-7.520, 6.400],
          [-7.520, 6.470],
          [-7.600, 6.470],
          [-7.600, 6.400]
        ]]
      }
    }
  ]
}
